HAWK-12A                
1 64623U 25138C   26196.97432660  .00001902  00000+0  95534-4 0  9992
2 64623  97.4411 199.2793 0015096  43.7850 316.4579 15.18405603 58233
HAWK-13A                
1 67392U 26004AF  26196.97694517  .00002132  00000+0  10408-3 0  9994
2 67392  97.4444 195.4394 0004214 215.9904 144.1047 15.19361936 28136
HAWK-13C                
1 67393U 26004AG  26197.30609332  .00002009  00000+0  98264-4 0  9994
2 67393  97.4592 196.1906 0004073 218.0500 142.0448 15.19359557 28180
HAWK-13B                
1 67396U 26004AK  26197.30600295  .00001991  00000+0  97382-4 0  9995
2 67396  97.4529 196.0124 0005354 219.3979 140.6867 15.19361925 28182
HAWK-14B                
1 68436U 26067W   26196.88340546  .00002247  00000+0  11246-3 0  9991
2 68436  97.4563 154.9257 0001480 356.5941   3.5283 15.18433908 16293
HAWK-14C                
1 68441U 26067AB  26196.88350777  .00002274  00000+0  11377-3 0  9999
2 68441  97.4501 154.8055 0002534  22.2700 337.8644 15.18431690 16297
HAWK-14A                
1 68448U 26067AJ  26196.88362705  .00002290  00000+0  11454-3 0  9994
2 68448  97.4623 155.0526 0003180  13.0409 347.0907 15.18435384 16296
